ONEWEB-0331             
1 49198U 21083N   25228.73080060  .00000053  00000+0  10200-3 0  9991
2 49198  87.9140  35.9131 0001919 103.9926 256.1419 13.18685424189888
ONEWEB-0333             
1 49199U 21083P   25229.11539364  .00000191  00000+0  48768-3 0  9994
2 49199  87.8982  20.6731 0001823  93.0635 267.0703 13.13469233192287
ONEWEB-0334             
1 49200U 21083Q   25228.52446714  .00000054  00000+0  10076-3 0  9996
2 49200  87.9293 335.1804 0002072  69.9423 290.1933 13.20773266196575
ONEWEB-0335             
1 49201U 21083R   25228.65324758  .00000325  00000+0  85564-3 0  9999
2 49201  87.8982  20.7519 0001874  99.8935 260.2406 13.13469801190946
ONEWEB-0336             
1 49202U 21083S   25228.70064325  .00000053  00000+0  10979-3 0  9993
2 49202  87.8985  20.7363 0001930  93.9994 266.1356 13.13470520190949
ONEWEB-0337             
1 49203U 21083T   25228.71065891  .00000262  00000+0  68380-3 0  9995
2 49203  87.8993  20.7356 0001685 101.0540 259.0779 13.13470917190946
ONEWEB-0338             
1 49204U 21083U   25228.72650929  .00000034  00000+0  51573-4 0  9993
2 49204  87.9303 335.1361 0001836  89.3273 270.8070 13.20771897196626
ONEWEB-0339             
1 49205U 21083V   25228.71927188  .00000444  00000+0  11815-2 0  9995
2 49205  87.8988  20.7190 0001659  93.3708 266.7611 13.13470432190928
